#dP2022  7  2  6  0  0.00000000      96 __u+U ITR00 EXT  IAC
## 2216 540000.00000000   900.00000000 59762 0.2500000000000
+  112   C06C08C10C11C12C13C14C16C19C20C21C22C23C24C25C26C27
+        C28C29C30C32C33C34C35C36C37C38C40C41C42C43C44C45C46
+        E01E02E03E04E05E07E08E09E10E11E12E13E14E15E18E19E21
+        E24E25E26E27E30E31E33E34E36G01G02G03G04G05G06G07G09
+        G10G11G12G13G14G15G16G17G18G19G20G21G22G23G24G25G26
+        G27G28G29G30G31G32J02J03R01R02R03R04R05R07R08R09R11
+        R12R13R14R15R17R18R19R20R21R24  0  0  0  0  0  0  0
++         9 11  6  8 10 11  8 10  9  8  8  7  9 10  7  8  8
++         9  8  9  9  9  9  8  8  7 10 11  9  8 10 10  7  9
++         7  8  9  8  9  8  8  7  7  7  7  8  8  8  8  7  8
++         7  7  8  7  7  8  8  6  7  6  7  6  7  7  9  8  7
++         8  8  8  8  8  7  8  9  8  8  7  8  5  7  6  7  8
++         6  8  8  8  8  9  8  9  6  8  6  9  8  8  9  8  7
++         8  9  8  8  7 10  7  9  8  9  0  0  0  0  0  0  0
%c M  cc GPS ccc cccc cccc cccc cccc ccccc ccccc ccccc ccccc
%c cc cc ccc ccc cccc cccc cccc cccc ccccc ccccc ccccc ccccc
%f  0.0000000  0.000000000  0.00000000000  0.000000000000000
%f  0.0000000  0.000000000  0.00000000000  0.000000000000000
%i    0    0    0    0      0      0      0      0         0
%i    0    0    0    0      0      0      0      0         0
/* IAC                                ULTRA-RAPID PREDICTION
/* S/V CLOCKS ARE ALIGNED TO GNSS TIME                      
/* G:C1WC2W R:C1PC2P E:C1XC5X C:C2IC6I J:C1CC2S             
/* PCV:IGS14_2196 OL/AL:FES2004  NONE     YN ORB:CoN CLK:CoN
*  2022 07 02 16  0  0.00000000
PC06  -6316.149902  23882.102781  34184.039330    310.357288
PC08   -222.659657  37557.362684 -19034.277374    387.881079
PC10 -10283.919654  36857.329222 -17969.505239    121.892048
PC11 -25342.562143   2129.015723 -11470.250398    450.254696
PC12 -25660.051295  -9307.404155   5879.635742   -586.215352
PC13   3267.320611  39301.538896 -14406.185361     12.587943
PC14 -21763.195227  13005.589497 -11711.199239    524.771810
PC16  -9029.212791  22628.132793  34588.871546    142.097839
PC19  19489.699211 -19752.399710   2850.667185   -124.814725
PC20  20832.559144  -5700.597747  17664.628989   -964.403137
PC21  -9727.098989 -12720.820315 -22835.575392   -599.301240
PC22   6800.260660 -22959.680385 -14302.629740   -963.024167
PC23   1989.971752  26250.261522   9272.130147   -940.018425
PC24 -17839.895460  -6767.190192  20368.383599   -968.431598
PC25 -10408.134628  15169.688638  20974.585473   -713.378399
PC26 -14859.562667 -21965.994084   8731.437065    715.212737
PC27  20192.245257  13709.429864 -13565.792375    748.070423
PC28   1625.067149  16302.127208 -22592.356400     85.379820
PC29  18489.974208  -9915.062793  18388.032084    576.320743
PC30  27657.847690   2631.975086   2718.075255    500.641532
PC32   9766.318347  12748.147122  22838.752318   -973.840489
PC33 -19408.493942  19858.742317  -2891.691567    -71.264431
PC34 -27574.053641  -1928.720016  -3775.037256   -367.736000
PC35   -816.047862 -16186.458303  22701.277235    347.573220
PC36  11053.595710 -14428.014456 -21145.245185   -971.925715
PC37  13791.833276  23005.139203  -7646.090818   -912.941947
PC38  -6147.399593  33717.001968 -24453.514651      7.320287
PC40 -23205.195126  33307.491888 -11779.907387    282.235234
PC41  -7108.897501  23137.093405  13945.946043    -48.264693
PC42 -20559.918988   4744.123482 -18232.255056   -955.909634
PC43 -19130.580228   9566.584330 -17926.398284      0.665659
PC44 -20488.464830 -13114.770946  13632.164589    711.231924
PC45  -2301.807105 -26322.450272  -8995.910332    798.664371
PC46  17575.028169   4981.684984 -21078.219547   -410.462193
PE01   8211.334102  22037.251199 -17970.126601   -507.477128
PE02  -8319.714497 -21908.541743  18090.434249    309.398733
PE03 -14701.581801 -11850.610468 -22796.419231   -574.892334
PE04  27550.569269  -1737.357253  10687.560712  -1062.762369
PE05   7090.691715 -18767.833373 -21755.720261   -166.706691
PE07 -24410.380825  14673.129322   8099.104804   -683.884574
PE08 -27591.858264   2053.497158 -10535.533816   -556.744981
PE09  24354.528890 -14700.432941  -8141.871770   -573.773295
PE10  21358.666453    707.504325  20463.832570   -523.633714
PE11  14352.609054  -8612.189314  24397.274996   3149.964180
PE12  24620.701245   9420.116046  13469.491511    -41.278156
PE13 -14859.166618   7997.217477 -24322.702620    429.595847
PE14 -10185.736625 -13525.453193  18156.326117  -1790.748942
PE15 -24634.860519  -9500.565254 -13379.366128    735.743926
PE18   2258.800810  20050.480310 -24260.156969  -1260.918558
PE19  12129.072642  13155.771692  23589.301423  -5206.274661
PE21  -3995.569504  29246.175900  -2221.881763   -743.601925
PE24  15285.006813 -19162.210060 -16614.986115   -702.941523
PE25   4172.540886 -29239.338484   1964.467724   -579.675623
PE26   4312.741717  21111.384176 -20297.894861  -1330.662353
PE27 -14784.852117  20183.940081  15820.552949   -335.610973
PE30 -16648.501547  -1822.633448  24401.250602   -640.015683
PE31  16767.488523    658.952928 -24373.169775   -499.258742
PE33  19829.111307  21308.731273  -5402.276549   -455.088351
PE34 -19993.544477 -21204.450651   5190.858765   -525.094469
PE36  -3552.100993 -20652.420934  20897.113279   -396.484578
PG01  20949.143095  12276.937605  10858.038376    329.366654
PG02 -12934.039635 -21115.439971  10034.559335   -652.009876
PG03  14235.912966   4248.661190  21898.827885   -296.100153
PG04  24350.168863   2542.307712  10416.542748   -150.567339
PG05  -7991.975608 -18312.340440 -17598.877165    -87.661391
PG06    384.787178 -18284.217730  19292.379297    368.035050
PG07  16957.396203  -2740.305537 -19970.278321    320.549777
PG09  25821.545409  -6285.126700    479.156523   -322.960589
PG10 -11480.068160  22796.420179  -6618.283023   -477.183130
PG11 -10625.487560 -22540.119018   9219.850388    -11.917985
PG12 -12589.603260  -8495.037306  21533.722535   -240.201892
PG13 -10146.528304 -13367.420984 -20783.507236    340.798242
PG14  13258.100680 -21584.012906  -7813.143347   -112.012154
PG15 -20302.940757  -5670.496618 -16755.166764    -48.598097
PG16   1964.355015  22046.635854 -14607.645386   -512.899373
PG17  17587.061177 -13391.704723  15192.877730    632.115109
PG18 -16499.038980   2798.935247 -20664.567715    125.207274
PG19   9355.322761 -14624.315211  19775.809016    178.441274
PG20  -1944.979316 -25566.632030  -7365.122651    506.543801
PG21  21035.818260  16742.039731   2400.339078    161.241631
PG22  -5984.066179  15689.715636  20958.449542    285.602196
PG23 -15228.825109  14967.141166 -15737.127565    -31.041324
PG24 -22047.543157 -13710.660443   6249.045479    207.021645
PG25 -16299.365046   6938.796778  19417.695194    344.436738
PG26  -3067.945463  25896.793812  -4154.497196    215.904998
PG27   6697.591885  13792.630043 -21934.383378    219.357773
PG28   8822.447949 -25150.361354   1843.834259    329.549328
PG29 -26258.855026   4257.808313   -162.740011   -529.740519
PG30   9456.582707 -12787.833784 -21161.548554   -533.005607
PG31   1189.385255  19742.005841  17370.536950   -184.151256
PG32 -14513.946141  15269.650294  16207.111908   -165.935771
PJ02 -29585.571448  25872.001513  20348.818429     -1.226092
PJ03 -25910.982799  18508.142711 -22969.581813     -3.226989
PR01   1173.829795  12819.091818  22027.923402     10.841590
PR02  16639.411247  -1548.719776  19339.616694    522.993448
PR03  20943.147837 -13744.943591   5001.707654     59.501726
PR04  13660.095593 -17932.501991 -11915.306086    149.205767
PR05  -1102.945167 -12365.642994 -22273.321482     95.582163
PR07 -20798.807680  14125.544168  -4125.283831     37.269087
PR08 -13372.213226  18038.296709  12138.342090    -65.984689
PR09 -11911.247456  -9909.146423  20259.371725     63.649226
PR11  -1896.391696  22498.743902  11900.200684     34.493712
PR12   6955.874191  23629.108887  -6574.593532     19.137369
PR13  11525.306679  11460.715577 -19669.908760    -24.191961
PR14   9316.826120  -8981.207171 -21961.230607     25.028716
PR15   1739.987600 -22926.577991 -11014.675056     94.929463
PR17  19156.987462   -638.451297  16807.652628    540.012806
PR18   4455.826179  -9467.132320  23270.544885    122.241165
PR19 -11252.588086 -13763.157297  18287.776931   -194.824136
PR20 -23345.166710 -10229.754247      0.623413    -73.785636
PR21 -18174.902250   1368.063701 -17867.496090   -314.185915
PR24  23729.059150   9308.751724    711.827107    101.572774
EOF
